satname,norad_id,inclination_deg,eccentricity,mean_motion_rev_per_day,perigee_km,apogee_km,l1,l2
STARLINK-1316,45415,53.1554,0.0006443,15.37531874,449.00888915489577,457.81202120564103,1 45415U 20019BH  26149.27298139  .00057456  00000+0  15358-2 0  9994,2 45415  53.1554 112.8622 0006443  44.4311 315.7209 15.37531874342369
STARLINK-1286,45417,53.0454,0.0001243,15.62837362,378.62567597833095,380.30561599612247,1 45417U 20019BK  26148.89418685  .00069559  00000+0  75652-3 0  9994,2 45417  53.0454 103.0755 0001243 126.5998 233.5130 15.62837362342701
STARLINK-1308,45419,53.0457,0.0008063,15.64751205,368.5101737447776,379.398596312275,1 45419U 20019BM  26149.18765895  .00056682  00000+0  57292-3 0  9990,2 45419  53.0457 121.1711 0008063  17.6048 342.5244 15.64751205342229
STARLINK-1329,45531,53.0431,0.0004385,15.71725446,351.0134524343648,356.9175063087732,1 45531U 20025A   26148.96890108  .00080824  00000+0  61150-3 0  9996,2 45531  53.0431  46.4900 0004385 107.2966 252.8532 15.71725446338036
STARLINK-1338,45532,53.0456,0.0004121,15.66722114,365.51031912933104,371.0707246928896,1 45532U 20025B   26149.02496388  .00062946  00000+0  58772-3 0  9998,2 45532  53.0456  52.4785 0004121  76.8317 283.3158 15.66722114337957
STARLINK-1350,45535,53.073,0.0001586,15.38017581,450.8888526032815,453.0553632123092,1 45535U 20025E   26149.61101185  .00013747  00000+0  37182-3 0  9991,2 45535  53.0730  12.5271 0001586  84.6863 275.4321 15.38017581338608
STARLINK-1362,45538,53.1565,0.0003599,15.36061734,455.3084272393007,460.2289121403437,1 45538U 20025H   26149.30661603 -.00098827  00000+0 -27985-2 0  9999,2 45538  53.1565  84.9800 0003599 104.8194 255.3209 15.36061734337548
STARLINK-1368,45540,53.1564,0.0004659,15.36324824,453.8037466938904,460.1727163846381,1 45540U 20025K   26149.19009149  .00058417  00000+0  16235-2 0  9995,2 45540  53.1564  85.8962 0004659  90.6087 269.5450 15.36324824337514
STARLINK-1371,45542,53.0451,0.000587,15.60144783,383.2672172252387,391.20976805359624,1 45542U 20025M   26149.15019677  .00108497  00000+0  12986-2 0  9993,2 45542  53.0451  61.1114 0005870  89.3229 270.8455 15.60144783337842
STARLINK-1372,45543,53.158,0.0004063,15.36827131,452.7222850558055,458.2752974997984,1 45543U 20025N   26149.02187857  .00056916  00000+0  15571-2 0  9997,2 45543  53.1580  86.2190 0004063  78.0257 282.1202 15.36827131336593
STARLINK-1373,45544,53.0462,0.000371,15.68521982,360.6275392701582,365.6295583073588,1 45544U 20025P   26149.11891237  .00067175  00000+0  58242-3 0  9994,2 45544  53.0462  57.3904 0003710  56.3122 303.8247 15.68521982337896
STARLINK-1327,45555,53.0429,0.0004973,15.66097646,366.72789927959366,373.43967967680874,1 45555U 20025AA  26149.08186017  .00060031  00000+0  57509-3 0  9994,2 45555  53.0429  34.5601 0004973  54.8321 305.3159 15.66097646338206
STARLINK-1356,45564,53.0436,0.0001175,15.5981454,387.39832262678647,388.9884102629003,1 45564U 20025AK  26149.58337963  .01259511  00000+0  13988-1 0  9992,2 45564  53.0436  45.0760 0001175  94.5633 176.5100 15.59814540  5987
STARLINK-1357,45565,53.0462,0.0006631,15.68236867,359.47491778234144,368.41626771684514,1 45565U 20025AL  26149.59607014  .00064565  00000+0  56631-3 0  9997,2 45565  53.0462   2.0630 0006631  94.9060 265.2713 15.68236867338712
STARLINK-1361,45567,53.0445,8.1e-05,15.60585081,385.41803425305443,386.513818927162,1 45567U 20025AN  26149.57972471  .00104002  00000+0  12257-2 0  9995,2 45567  53.0445  43.2175 0000810 101.7633 258.3471 15.60585081338139
STARLINK-1363,45568,53.0254,0.0009962,16.19119561,215.3684336639908,228.51843392027786,1 45568U 20025AP  26149.54197883  .01213413  11790-4  64884-3 0  9994,2 45568  53.0254 345.2413 0009962 281.5533  78.4386 16.19119561338925
STARLINK-1366,45569,53.0303,0.0007514,16.07387289,249.03694865667694,259.00375472479664,1 45569U 20025AQ  26150.03305932  .00700161  26181-3  85692-3 0  9996,2 45569  53.0303 345.4543 0007514 281.3235  78.6952 16.07387289338961
STARLINK-1376,45570,53.1577,0.0005196,15.37184779,450.88858179389354,457.98899455296396,1 45570U 20025AR  26149.00086540  .00056626  00000+0  15313-2 0  9994,2 45570  53.1577  62.7420 0005196  79.5210 280.6379 15.37184779337827
STARLINK-1320,45572,53.0428,0.0005974,15.8374836,315.84999309845716,323.85274960454717,1 45572U 20025AT  26149.58337963  .00165331  00000+0  72084-3 0  9990,2 45572  53.0428 302.2723 0005974 296.8924 297.5272 15.83748360  5993
STARLINK-1321,45573,53.0439,0.0004022,15.61421608,380.8302616505325,386.26936252217456,1 45573U 20025AU  26149.08293935  .00112571  00000+0  12825-2 0  9990,2 45573  53.0439  29.6068 0004022 100.8881 259.2585 15.61421608337974
STARLINK-1331,45578,53.0476,0.0004788,15.61356804,380.49932111032103,386.974491563029,1 45578U 20025AZ  26149.55317121  .00098482  00000+0  11274-2 0  9992,2 45578  53.0476  34.1955 0004788  77.9271 282.2278 15.61356804338265
STARLINK-1333,45580,53.1589,0.0003143,15.34217414,461.0957314269672,465.3962247669997,1 45580U 20025BB  26149.02915664  .00036547  00000+0  10938-2 0  9993,2 45580  53.1589  63.9098 0003143  95.3358 264.8003 15.34217414337811
STARLINK-1335,45581,53.156,0.0004284,15.35695337,455.926964338184,461.78489988241745,1 45581U 20025BC  26149.13427551  .00055394  00000+0  15721-2 0  9995,2 45581  53.1560  60.2556 0004284  95.4056 264.7436 15.35695337337862
STARLINK-1337,45582,53.0469,0.0006215,15.72824599,346.6466193827273,355.0107237124612,1 45582U 20025BD  26149.54408086  .00081492  00000+0  58814-3 0  9992,2 45582  53.0469  24.3654 0006215  81.5617 278.6105 15.72824599338385
STARLINK-1347,45586,53.0393,0.000384,15.67289882,364.0711093271484,369.2511142770127,1 45586U 20025BH  26148.99039917  .00069098  00000+0  62959-3 0  9990,2 45586  53.0393 357.1975 0003840 109.2534 250.8897 15.67289882338716
STARLINK-1364,45589,53.0438,0.0001791,15.68126825,363.0534389497616,365.4685659142333,1 45589U 20025BL  26149.00004630 -.00005863  00000+0 -46599-4 0  9995,2 45589  53.0438  33.9009 0001791 103.7457 239.7405 15.68126825  5969
STARLINK-1365,45590,53.0468,0.0004237,15.57278976,392.6660024791481,398.4060129859017,1 45590U 20025BM  26149.18789325  .00098388  00000+0  13148-2 0  9991,2 45590  53.0468  66.3721 0004237  63.8609 296.2837 15.57278976337786
STARLINK-1443,45660,53.1346,0.0003968,15.3149779,468.6249654350677,474.0607126353261,1 45660U 20035D   26149.13806601  .00051033  00000+0  16552-2 0  9990,2 45660  53.1346  51.9529 0003968  72.5913 287.5522 15.31497790331069
STARLINK-1446,45663,53.0227,0.0003439,15.4687708,423.5283247415209,428.2081195333076,1 45663U 20035G   26149.48708331  .00039775  00000+0  78283-3 0  9991,2 45663  53.0227 334.4566 0003439 144.0662 216.0576 15.46877080332166
STARLINK-1448,45665,53.0447,0.0006054,15.67007228,363.3883721576685,371.5559557333736,1 45665U 20035J   26149.59759987  .00065606  00000+0  60485-3 0  9995,2 45665  53.0447  18.2374 0006054  76.1899 283.9790 15.67007228331554
STARLINK-1451,45668,53.0531,0.0002802,15.13682365,523.0474347951076,526.9159425082271,1 45668U 20035M   26149.19055770  .00028517  00000+0  15768-2 0  9996,2 45668  53.0531  61.5123 0002802  85.7325 274.3988 15.13682365330926
STARLINK-1452,45669,53.0272,0.000193,15.56915222,395.28350080061045,397.89854581760846,1 45669U 20035N   26149.54917951  .00120905  00000+0  16319-2 0  9991,2 45669  53.0272 352.9531 0001930 292.0139  68.0667 15.56915222331916
STARLINK-1453,45670,53.0404,0.0001667,15.67346453,365.3744845100073,367.6231460908293,1 45670U 20035P   26149.56785858  .00071094  00000+0  64614-3 0  9990,2 45670  53.0404 338.7053 0001667 178.5720 181.5300 15.67346453332009
STARLINK-1454,45671,53.0443,0.0002608,15.65434873,370.2279278725682,373.7487932606391,1 45671U 20035Q   26148.89105115  .00064377  00000+0  63278-3 0  9999,2 45671  53.0443  22.8332 0002608  51.9160 308.2089 15.65434873331421
STARLINK-1456,45673,53.0429,0.0005123,15.6430812,371.7695800194133,378.689079160712,1 45673U 20035S   26149.04362388  .00119692  00000+0  12167-2 0  9997,2 45673  53.0429  16.5898 0005123 122.8577 237.2931 15.64308120331543
STARLINK-1458,45675,53.0481,0.0003757,15.549558,399.73371327218956,404.8285194448217,1 45675U 20035U   26149.07488424  .00101735  00000+0  14807-2 0  9994,2 45675  53.0481  30.3900 0003757  73.7610 286.3813 15.54955800331315
STARLINK-1460,45676,53.158,0.0003891,15.34020703,461.16861342552966,466.49303278546995,1 45676U 20035V   26149.13388028  .00042616  00000+0  12803-2 0  9997,2 45676  53.1580  50.5955 0003891 115.6346 244.5059 15.34020703331043
STARLINK-1392,45677,53.1553,0.0003057,15.37199098,452.3076523928585,456.4850632878415,1 45677U 20035W   26148.97732099  .00056404  00000+0  15250-2 0  9999,2 45677  53.1553  50.1951 0003057 116.8401 243.2916 15.37199098331073
STARLINK-1394,45679,53.0414,0.0005755,15.64023475,372.1616583853638,379.93572611714444,1 45679U 20035Y   26149.61981783  .00110442  00000+0  11369-2 0  9999,2 45679  53.0414   4.0275 0005755 129.2384 230.9141 15.64023475331766
STARLINK-1402,45685,53.042,0.0005911,15.56671657,393.2927183952934,401.30263727142847,1 45685U 20035AE  26148.81205934  .00053669  00000+0  74052-3 0  9990,2 45685  53.0420 358.2626 0005911 148.3718 211.7649 15.56671657331785
STARLINK-1404,45686,53.1586,0.000468,15.43215455,433.43734732318535,439.81596610586985,1 45686U 20035AF  26149.07503522  .00067779  00000+0  14989-2 0  9993,2 45686  53.1586  31.8022 0004680 132.9264 227.2136 15.43215455331342
STARLINK-1413,45689,53.1574,0.0002635,15.34059879,461.91151044092476,465.51716609619143,1 45689U 20035AJ  26149.33337963  .00014473  00000+0  44337-3 0  9993,2 45689  53.1574  34.3070 0002635 135.5066  33.1226 15.34059879  5887
STARLINK-1417,45693,53.0497,0.0005957,15.16215639,513.1828439257251,521.3980561897242,1 45693U 20035AN  26148.97650551  .00026356  00000+0  13581-2 0  9997,2 45693  53.0497  49.3281 0005957 105.8525 254.3126 15.16215639331061
